NORAD_CAT_ID,OBJECT_NAME,OBJECT_TYPE,EPOCH,MEAN_MOTION,ECCENTRICITY,INCLINATION,RA_OF_ASC_NODE,ARG_OF_PERICENTER,MEAN_ANOMALY,BSTAR,MEAN_MOTION_DOT,MEAN_MOTION_DDOT,TLE_LINE0,TLE_LINE1,TLE_LINE2,SEMIMAJOR_AXIS,PERIOD,APOGEE,PERIGEE,DECAYED
53007.0,STARLINK-4215,PAYLOAD,2023-10-08 11:22:09,15.08831434,0.0001259,53.2156,99.0327,90.7664,269.3473,3.7225e-05,3.04e-06,0.0,0 STARLINK-4215,1 53007U 22076X   23281.47371662  .00000304  00000-0  37225-4 0  9994,2 53007  53.2156  99.0327 0001259  90.7664 269.3473 15.08831434 69510,6917.907,95.438,540.643,538.901,0.0
53007.0,STARLINK-4215,PAYLOAD,2023-10-08 20:54:27,15.08841787,0.0001372,53.2167,97.2476,89.5855,270.5294,0.00010543,1.39e-05,0.0,0 STARLINK-4215,1 53007U 22076X   23281.87115412  .00001390  00000-0  10543-3 0  9996,2 53007  53.2167  97.2476 0001372  89.5855 270.5294 15.08841787 69574,6917.875,95.437,540.689,538.791,0.0
53007.0,STARLINK-4215,PAYLOAD,2023-10-09 11:12:56,15.08838311,0.0001447,53.2175,94.5711,79.6824,280.4331,0.00014497,2.02e-05,0.0,0 STARLINK-4215,1 53007U 22076X   23282.46731700  .00002020  00000-0  14497-3 0  9999,2 53007  53.2175  94.5711 0001447  79.6824 280.4331 15.08838311 69665,6917.886,95.438,540.752,538.75,0.0
53007.0,STARLINK-4215,PAYLOAD,2023-10-09 19:09:51,15.08847197,0.0001354,53.2164,93.084,80.7101,279.4045,0.0001732,2.47e-05,0.0,0 STARLINK-4215,1 53007U 22076X   23282.79851212  .00002470  00000-0  17320-3 0  9993,2 53007  53.2164  93.0840 0001354  80.7101 279.4045 15.08847197 70189,6917.858,95.437,540.66,538.787,0.0
53007.0,STARLINK-4215,PAYLOAD,2023-10-10 11:03:42,15.08845977,0.0001426,53.2161,90.111,80.66,279.4553,0.00023195,3.406e-05,0.0,0 STARLINK-4215,1 53007U 22076X   23283.46091290  .00003406  00000-0  23195-3 0  9997,2 53007  53.2161  90.1110 0001426  80.6600 279.4553 15.08845977 69813,6917.862,95.437,540.714,538.741,0.0
53007.0,STARLINK-4215,PAYLOAD,2023-10-10 17:25:15,15.08850431,0.0001362,53.2164,88.9216,86.3126,273.8022,0.00025001,3.694e-05,0.0,0 STARLINK-4215,1 53007U 22076X   23283.72586953  .00003694  00000-0  25001-3 0  9998,2 53007  53.2164  88.9216 0001362  86.3126 273.8022 15.08850431 69857,6917.849,95.437,540.656,538.771,0.0
53007.0,STARLINK-4215,PAYLOAD,2023-10-11 04:32:57,15.08839783,0.0001249,53.2162,86.8396,89.9989,270.1146,-4.5533e-05,-1.012e-05,0.0,0 STARLINK-4215,1 53007U 22076X   23284.18955014 -.00001012  00000-0 -45533-4 0  9994,2 53007  53.2162  86.8396 0001249  89.9989 270.1146 15.08839783 70396,6917.881,95.438,540.61,538.882,0.0
53007.0,STARLINK-4215,PAYLOAD,2023-10-11 10:54:29,15.08838557,0.0001411,53.2155,85.6503,89.1166,270.9988,3.8735e-05,3.29e-06,0.0,0 STARLINK-4215,1 53007U 22076X   23284.45451343  .00000329  00000-0  38735-4 0  9994,2 53007  53.2155  85.6503 0001411  89.1166 270.9988 15.08838557 69966,6917.885,95.438,540.726,538.774,0.0
53007.0,STARLINK-4215,PAYLOAD,2023-10-12 13:56:03,15.08842252,0.000147,53.2154,80.5943,91.0824,269.0337,7.3319e-05,8.79e-06,0.0,0 STARLINK-4215,1 53007U 22076X   23285.58059148  .00000879  00000-0  73319-4 0  9993,2 53007  53.2154  80.5943 0001470  91.0824 269.0337 15.08842252 70130,6917.874,95.437,540.755,538.722,0.0
53007.0,STARLINK-4215,PAYLOAD,2023-10-12 17:06:49,15.08845965,0.0001531,53.2181,79.9999,87.615,272.5018,0.00014047,1.949e-05,0.0,0 STARLINK-4215,1 53007U 22076X   23285.71307037  .00001949  00000-0  14047-3 0  9992,2 53007  53.2181  79.9999 0001531  87.6150 272.5018 15.08845965 70627,6917.862,95.437,540.786,538.668,0.0
53007.0,STARLINK-4215,PAYLOAD,2023-10-13 10:36:04,15.08835897,0.0001525,53.2163,76.7283,86.0072,274.1095,0.00011434,1.532e-05,0.0,0 STARLINK-4215,1 53007U 22076X   23286.44171697  .00001532  00000-0  11434-3 0  9999,2 53007  53.2163  76.7283 0001525  86.0072 274.1095 15.08835897 70735,6917.893,95.438,540.813,538.703,0.0
53007.0,STARLINK-4215,PAYLOAD,2023-10-13 13:46:50,15.0883769,0.0001595,53.2173,76.1346,86.1487,273.9687,0.00015377,2.16e-05,0.0,0 STARLINK-4215,1 53007U 22076X   23286.57419731  .00002160  00000-0  15377-3 0  9995,2 53007  53.2173  76.1346 0001595  86.1487 273.9687 15.08837690 70285,6917.887,95.438,540.856,538.649,0.0
53007.0,STARLINK-4215,PAYLOAD,2023-10-13 16:57:36,15.08843375,0.0001476,53.2168,75.5394,86.1597,273.9564,0.00018134,2.599e-05,0.0,0 STARLINK-4215,1 53007U 22076X   23286.70667365  .00002599  00000-0  18134-3 0  9998,2 53007  53.2168  75.5394 0001476  86.1597 273.9564 15.08843375 70309,6917.87,95.437,540.756,538.714,0.0
53007.0,STARLINK-4215,PAYLOAD,2023-10-14 13:37:37,15.08841948,0.0001435,53.2168,71.6747,83.9387,276.1769,0.00013599,1.877e-05,0.0,0 STARLINK-4215,1 53007U 22076X   23287.56779423  .00001877  00000-0  13599-3 0  9990,2 53007  53.2168  71.6747 0001435  83.9387 276.1769 15.08841948 70435,6917.874,95.437,540.732,538.747,0.0
53007.0,STARLINK-4215,PAYLOAD,2023-10-14 15:13:00,15.08843755,0.0001474,53.2167,71.3774,83.574,276.542,0.0001462,2.04e-05,0.0,0 STARLINK-4215,1 53007U 22076X   23287.63403336  .00002040  00000-0  14620-3 0  9994,2 53007  53.2167  71.3774 0001474  83.5740 276.5420 15.08843755 70912,6917.869,95.437,540.754,538.714,0.0
53007.0,STARLINK-4215,PAYLOAD,2023-10-15 08:42:15,15.08834149,0.0001165,53.2169,68.1064,78.7641,281.3482,-7.7364e-06,-4.11e-06,0.0,0 STARLINK-4215,1 53007U 22076X   23288.36267933 -.00000411  00000-0 -77364-5 0  9994,2 53007  53.2169  68.1064 0001165  78.7641 281.3482 15.08834149 71025,6917.898,95.438,540.569,538.957,0.0
53007.0,STARLINK-4215,PAYLOAD,2023-10-15 13:28:25,15.08832971,0.0001021,53.2171,67.2143,72.8829,287.2275,-2.3099e-05,-6.55e-06,0.0,0 STARLINK-4215,1 53007U 22076X   23288.56140052 -.00000655  00000-0 -23099-4 0  9993,2 53007  53.2171  67.2143 0001021  72.8829 287.2275 15.08832971 70586,6917.902,95.438,540.473,539.061,0.0
53007.0,STARLINK-4215,PAYLOAD,2023-10-15 16:39:11,15.08835715,0.0001221,53.2172,66.6194,82.778,277.335,1.2032e-05,-9.6e-07,0.0,0 STARLINK-4215,1 53007U 22076X   23288.69387948 -.00000096  00000-0  12032-4 0  9997,2 53007  53.2172  66.6194 0001221  82.7780 277.3350 15.08835715 70600,6917.893,95.438,540.603,538.914,0.0
53007.0,STARLINK-4215,PAYLOAD,2023-10-16 14:54:35,15.08842277,0.0001312,53.2181,62.4567,87.648,272.4663,8.4751e-05,1.061e-05,0.0,0 STARLINK-4215,1 53007U 22076X   23289.62123845  .00001061  00000-0  84751-4 0  9994,2 53007  53.2181  62.4567 0001312  87.6480 272.4663 15.08842277 70749,6917.873,95.437,540.646,538.831,0.0
53007.0,STARLINK-4215,PAYLOAD,2023-10-18 01:53:04,15.08840737,0.000131,53.2176,55.915,85.9494,274.1648,0.00014257,1.982e-05,0.0,0 STARLINK-4215,1 53007U 22076X   23291.07852308  .00001982  00000-0  14257-3 0  9994,2 53007  53.2176  55.9150 0001310  85.9494 274.1648 15.08840737 70967,6917.878,95.438,540.649,538.837,0.0
53007.0,STARLINK-4215,PAYLOAD,2023-10-18 11:25:22,15.08849268,0.0001542,53.2178,54.1321,77.4413,282.6752,-0.00028977,-4.898e-05,0.0,0 STARLINK-4215,1 53007U 22076X   23291.47595865 -.00004898  00000-0 -28977-3 0  9995,2 53007  53.2178  54.1321 0001542  77.4413 282.6752 15.08849268 71491,6917.852,95.437,540.784,538.65,0.0
53007.0,STARLINK-4215,PAYLOAD,2023-10-18 14:36:09,15.08841507,0.0001372,53.2184,53.5364,85.3539,274.761,8.6842e-05,1.094e-05,0.0,0 STARLINK-4215,1 53007U 22076X   23291.60844491  .00001094  00000-0  86842-4 0  9991,2 53007  53.2184  53.5364 0001372  85.3539 274.7610 15.08841507 71512,6917.876,95.437,540.69,538.792,0.0
53007.0,STARLINK-4215,PAYLOAD,2023-10-19 11:16:09,15.08851599,0.0001564,53.2182,49.6696,89.8644,270.2528,0.00017873,2.559e-05,0.0,0 STARLINK-4215,1 53007U 22076X   23292.46955480  .00002559  00000-0  17873-3 0  9991,2 53007  53.2182  49.6696 0001564  89.8644 270.2528 15.08851599 71648,6917.845,95.437,540.792,538.628,0.0
53007.0,STARLINK-4215,PAYLOAD,2023-10-20 11:06:57,15.08832212,0.000131,53.2179,45.2093,90.4957,269.6185,-6.4619e-05,-1.316e-05,0.0,0 STARLINK-4215,1 53007U 22076X   23293.46316397 -.00001316  00000-0 -64619-4 0  9993,2 53007  53.2179  45.2093 0001310  90.4957 269.6185 15.08832212 71799,6917.904,95.438,540.675,538.863,0.0
53007.0,STARLINK-4215,PAYLOAD,2023-10-20 17:28:29,15.08837458,0.0001375,53.2186,44.0173,104.6814,255.433,-4.0058e-05,-9.25e-06,0.0,0 STARLINK-4215,1 53007U 22076X   23293.72812203 -.00000925  00000-0 -40058-4 0  9995,2 53007  53.2186  44.0173 0001375 104.6814 255.4330 15.08837458 71369,6917.888,95.438,540.704,538.802,0.0
53007.0,STARLINK-4215,PAYLOAD,2023-10-21 12:33:07,15.08841675,0.0001725,53.2189,40.4514,103.5184,256.6,2.1562e-05,5.5e-07,0.0,0 STARLINK-4215,1 53007U 22076X   23294.52300028  .00000055  00000-0  21562-4 0  9992,2 53007  53.2189  40.4514 0001725 103.5184 256.6000 15.08841675 71956,6917.875,95.437,540.934,538.547,0.0
53007.0,STARLINK-4215,PAYLOAD,2023-10-21 14:08:30,15.08850458,0.0001316,53.2191,40.1589,90.2999,269.8144,0.00020832,3.03e-05,0.0,0 STARLINK-4215,1 53007U 22076X   23294.58923756  .00003030  00000-0  20832-3 0  9991,2 53007  53.2191  40.1589 0001316  90.2999 269.8144 15.08850458 71493,6917.848,95.437,540.624,538.803,0.0
53007.0,STARLINK-4215,PAYLOAD,2023-10-21 23:40:49,15.08838895,0.0001202,53.2182,38.3728,94.9423,265.1707,0.00027822,4.143e-05,0.0,0 STARLINK-4215,1 53007U 22076X   23294.98668015  .00004143  00000-0  27822-3 0  9991,2 53007  53.2182  38.3728 0001202  94.9423 265.1707 15.08838895 72029,6917.884,95.438,540.58,538.917,0.0
53007.0,STARLINK-4215,PAYLOAD,2023-10-22 12:23:56,15.08808434,0.0002073,53.22,35.9934,113.6472,246.4738,-4.1235e-05,-9.44e-06,0.0,0 STARLINK-4215,1 53007U 22076X   23295.51662796 -.00000944  00000-0 -41235-4 0  9993,2 53007  53.2200  35.9934 0002073 113.6472 246.4738 15.08808434 72103,6917.977,95.44,541.276,538.408,0.0
53007.0,STARLINK-4215,PAYLOAD,2023-10-22 13:59:16,15.08866057,0.0001563,53.219,35.6953,95.6864,264.4306,0.00060701,9.393e-05,0.0,0 STARLINK-4215,1 53007U 22076X   23295.58283217  .00009393  00000-0  60701-3 0  9990,2 53007  53.2190  35.6953 0001563  95.6864 264.4306 15.08866057 71640,6917.801,95.436,540.747,538.584,0.0
